[{"OBJECT_NAME":"STARLINK-31010","OBJECT_ID":"2023-191M","EPOCH":"2026-03-08T08:00:03.000384","MEAN_MOTION":15.27575293,"ECCENTRICITY":0.00010706,"INCLINATION":42.9996,"RA_OF_ASC_NODE":111.1992,"ARG_OF_PERICENTER":282.2634,"MEAN_ANOMALY":18.6268,"EPHEMERIS_TYPE":0,"CLASSIFICATION_TYPE":"U","NORAD_CAT_ID":58519,"ELEMENT_SET_NO":999,"REV_AT_EPOCH":579,"BSTAR":-0.00019262494,"MEAN_MOTION_DOT":-5.558e-5,"MEAN_MOTION_DDOT":0},{"OBJECT_NAME":"STARLINK-36554","OBJECT_ID":"2026-012K","EPOCH":"2026-03-08T17:06:15.871680","MEAN_MOTION":15.27591469,"ECCENTRICITY":6.955e-5,"INCLINATION":42.9934,"RA_OF_ASC_NODE":319.8184,"ARG_OF_PERICENTER":339.2059,"MEAN_ANOMALY":20.8765,"EPHEMERIS_TYPE":0,"CLASSIFICATION_TYPE":"U","NORAD_CAT_ID":67502,"ELEMENT_SET_NO":999,"REV_AT_EPOCH":761,"BSTAR":0.0011969118,"MEAN_MOTION_DOT":0.00032833,"MEAN_MOTION_DDOT":0}]
